BEIDOU-2 IGSO-1 (C06)   
1 36828U 10036A   26233.75814490 -.00000137  00000+0  00000+0 0  9991
2 36828  54.3073 162.3689 0058186 224.3483 321.2966  1.00253816 58750
BEIDOU-2 G4 (C04)       
1 37210U 10057A   26244.34857208 -.00000109  00000+0  00000+0 0  9990
2 37210   3.8291  68.4080 0007443 177.6715  19.9526  1.00271489 58058
BEIDOU-2 IGSO-2 (C07)   
1 37256U 10068A   26243.01642102 -.00000167  00000+0  00000+0 0  9994
2 37256  47.4138 270.8943 0057472 215.6625 325.4311  1.00258049 57546
BEIDOU-2 IGSO-3 (C08)   
1 37384U 11013A   26230.91979428 -.00000155  00000+0  00000+0 0  9993
2 37384  62.4969  39.5609 0036994 183.8957 178.9703  1.00253025 56292
BEIDOU-2 IGSO-4 (C09)   
1 37763U 11038A   26243.76490878 -.00000059  00000+0  00000+0 0  9998
2 37763  54.6036 165.0022 0160427 231.0482 313.7907  1.00270703 55402
BEIDOU-2 IGSO-5 (C10)   
1 37948U 11073A   26244.05047671 -.00000101  00000+0  00000+0 0  9992
2 37948  47.5444 270.5964 0116879 223.8595 319.4874  1.00281393 53898
BEIDOU-2 G5 (C05)       
1 38091U 12008A   26244.18602397  .00000060  00000+0  00000+0 0  9990
2 38091   3.7561  69.1503 0006217 248.3824 148.5316  1.00275115 53138
BEIDOU-2 M3 (C11)       
1 38250U 12018A   26243.36283213 -.00000028  00000+0  00000+0 0  9994
2 38250  55.6895 302.3378 0022802 272.3773  87.4417  1.86230229 97346
BEIDOU-2 M4 (C12)       
1 38251U 12018B   26243.29525112 -.00000027  00000+0  00000+0 0  9993
2 38251  55.5893 301.5477 0014074 272.0564  87.8625  1.86229830 97343
BEIDOU-2 M6 (C14)       
1 38775U 12050B   26243.54149791 -.00000006  00000+0  00000+0 0  9990
2 38775  56.6141  60.4059 0011358   4.8130 355.2386  1.86230856 94715
BEIDOU-2 G6 (C02)       
1 38953U 12059A   26244.11963701 -.00000172  00000+0  00000+0 0  9990
2 38953   4.6064  72.6616 0007202 327.5327  67.2188  1.00272644 50674
BEIDOU-3S IGSO-1S (C31) 
1 40549U 15019A   26243.62271124 -.00000154  00000+0  00000+0 0  9999
2 40549  49.0506 294.5494 0039137 200.2477 164.3210  1.00292195 41832
BEIDOU-3S M2S (C58)     
1 40748U 15037A   26242.95941001 -.00000024  00000+0  00000+0 0  9999
2 40748  54.8013 299.4678 0011399 259.1981 100.7539  1.86232392 75518
BEIDOU-3S M1S (C57)     
1 40749U 15037B   26244.23144204 -.00000025  00000+0  00000+0 0  9994
2 40749  54.7967 299.4096 0001856  52.2917 307.8009  1.86254897 75547
BEIDOU-3S IGSO-2S (C56) 
1 40938U 15053A   26214.59725278 -.00000074  00000+0  00000+0 0  9998
2 40938  49.1518 258.2267 0066355 193.9763 165.8677  1.00249594 39814
BEIDOU-2 IGSO-6 (C13)   
1 41434U 16021A   26241.90113954 -.00000137  00000+0  00000+0 0  9993
2 41434  60.3362  37.3117 0060705 227.8765 133.3294  1.00285004 38225
BEIDOU-2 G7 (C03)       
1 41586U 16037A   26244.26757765 -.00000350  00000+0  00000+0 0  9991
2 41586   1.9018  69.6439 0005056 358.2304 119.4537  1.00270691  7657
BEIDOU-3 M1 (C19)       
1 43001U 17069A   26243.84375500 -.00000005  00000+0  00000+0 0  9994
2 43001  56.7614  60.5963 0007390 325.2431  34.7487  1.86231087 60013
BEIDOU-3 M2 (C20)       
1 43002U 17069B   26240.56097375  .00000001  00000+0  00000+0 0  9997
2 43002  56.7571  60.7391 0006626   3.5682 356.4907  1.86230983 59943
BEIDOU-3 M7 (C27)       
1 43107U 18003A   26242.45108833 -.00000025  00000+0  00000+0 0  9991
2 43107  54.2581 299.7209 0003318 104.7821 255.3359  1.86228470 58731
BEIDOU-3 M8 (C28)       
1 43108U 18003B   26242.39470102 -.00000025  00000+0  00000+0 0  9996
2 43108  54.2510 299.7039 0004128 260.6951  99.3396  1.86231394 58748
BEIDOU-3 M4 (C22)       
1 43207U 18018A   26240.15339278  .00000002  00000+0  00000+0 0  9996
2 43207  56.7170  60.7789 0006371  41.9092 318.1955  1.86231173 58088
BEIDOU-3 M3 (C21)       
1 43208U 18018B   26243.97856495 -.00000006  00000+0  00000+0 0  9990
2 43208  56.7198  60.6571 0005797 349.8327  10.1955  1.86231172 58155
BEIDOU-3 M9 (C29)       
1 43245U 18029A   26244.19695082 -.00000022  00000+0  00000+0 0  9999
2 43245  54.1222 297.2853 0001672 224.7920 135.2693  1.86228363 57318
BEIDOU-3 M10 (C30)      
1 43246U 18029B   26243.05700873 -.00000021  00000+0  00000+0 0  9998
2 43246  54.1206 297.3514 0002703  19.3068 340.7825  1.86229561 57279
BEIDOU-2 IGSO-7 (C16)   
1 43539U 18057A   26243.69750490 -.00000113  00000+0  00000+0 0  9996
2 43539  55.2141 162.4196 0108097 236.7933 304.0777  1.00281286 29884
BEIDOU-3 M5 (C23)       
1 43581U 18062A   26243.28087498  .00000043  00000+0  00000+0 0  9996
2 43581  54.0841 179.7527 0004491 305.7273  54.2238  1.86228853 55038
BEIDOU-3 M6 (C24)       
1 43582U 18062B   26242.07073495  .00000036  00000+0  00000+0 0  9997
2 43582  54.0839 179.7832 0006116  24.8994 335.1154  1.86228092 55011
BEIDOU-3 M12 (C26)      
1 43602U 18067A   26243.08319152  .00000042  00000+0  00000+0 0  9997
2 43602  54.1797 178.5020 0008573  35.0024 325.0476  1.86227669 54519
BEIDOU-3 M11 (C25)      
1 43603U 18067B   26243.21845723  .00000042  00000+0  00000+0 0  9991
2 43603  54.1771 178.4608 0005085  22.5698 337.4471  1.86227194 54544
BEIDOU-3 M13 (C32)      
1 43622U 18072A   26243.70957954 -.00000006  00000+0  00000+0 0  9993
2 43622  56.6935  60.1708 0004403 332.2723  27.7441  1.86231333 54068
BEIDOU-3 M14 (C33)      
1 43623U 18072B   26243.57500022 -.00000006  00000+0  00000+0 0  9999
2 43623  56.6952  60.1696 0004109  24.3603 335.6994  1.86231337 54050
BEIDOU-3 M16 (C35)      
1 43647U 18078A   26243.19238735 -.00000022  00000+0  00000+0 0  9996
2 43647  54.0191 297.3507 0006041  34.0689 326.0483  1.86232300 53559
BEIDOU-3 M15 (C34)      
1 43648U 18078B   26240.10088839 -.00000019  00000+0  00000+0 0  9999
2 43648  54.0176 297.4596 0002681  43.1010 317.0055  1.86227561 53511
BEIDOU-3 G1 (C59)       
1 43683U 18085A   26244.13480374 -.00000105  00000+0  00000+0 0  9999
2 43683   2.5791  95.2440 0006468  18.5801  75.0731  1.00272358 28822
BEIDOU-3 M17 (C36)      
1 43706U 18093A   26244.22557681  .00000044  00000+0  00000+0 0  9991
2 43706  54.1673 179.7186 0008922 300.6330 196.2423  1.86228228 52950
BEIDOU-3 M18 (C37)      
1 43707U 18093B   26240.66362110  .00000022  00000+0  00000+0 0  9993
2 43707  54.1689 179.8314 0007618 332.1739  27.7621  1.86226697 52884
BEIDOU-3 IGSO-1 (C38)   
1 44204U 19023A   26240.34823663 -.00000187  00000+0  00000+0 0  9993
2 44204  58.7997  36.9119 0027056 222.6066 321.7076  1.00270870  7934
BEIDOU-2 G8 (C01)       
1 44231U 19027A   26244.27425101 -.00000243  00000+0  00000+0 0  9991
2 44231   1.8436  74.3629 0008964 281.8179 227.4716  1.00275876 26847
BEIDOU-3 IGSO-2 (C39)   
1 44337U 19035A   26241.71502684 -.00000141  00000+0  00000+0 0  9992
2 44337  55.2506 158.2181 0038917 211.5634 345.2616  1.00278019 26409
BEIDOU-3 M24 (C46)      
1 44542U 19061A   26243.41607125  .00000044  00000+0  00000+0 0  9995
2 44542  54.3952 180.1922 0009137   9.3066 350.7030  1.86229522 47192
BEIDOU-3 M23 (C45)      
1 44543U 19061B   26242.47066219  .00000039  00000+0  00000+0 0  9998
2 44543  54.3941 180.1925 0005974 355.2956   1.9887  1.86227634 47175
BEIDOU-3 IGSO-3 (C40)   
1 44709U 19073A   26243.50237293 -.00000156  00000+0  00000+0 0  9993
2 44709  54.6728 280.0769 0046840 197.7740 162.1531  1.00267582 25217
BEIDOU-3 M22 (C44)      
1 44793U 19078A   26242.18306315 -.00000021  00000+0  00000+0 0  9997
2 44793  53.8657 297.2193 0004891  43.6640 316.4564  1.86227266 46022
BEIDOU-3 M21 (C43)      
1 44794U 19078B   26242.85974398 -.00000021  00000+0  00000+0 0  9994
2 44794  53.8383 297.1553 0002799  33.7450 326.3521  1.86228059 46048
BEIDOU-3 M19 (C41)      
1 44864U 19090A   26244.17865727 -.00000007  00000+0  00000+0 0  9992
2 44864  56.6282  60.2823 0015681 294.0002  68.2486  1.86231445 45654
BEIDOU-3 M20 (C42)      
1 44865U 19090B   26243.46973353 -.00000006  00000+0  00000+0 0  9998
2 44865  56.6296  60.3406 0013126 309.6017  26.9237  1.86231447 45612
BEIDOU-3 G2 (C60)       
1 45344U 20017A   26244.11894368 -.00000136  00000+0  00000+0 0  9997
2 45344   2.5558  48.1988 0002322 113.1005 301.8684  1.00271693 24022
BEIDOU-3 G3 (C61)       
1 45807U 20040A   26244.26757765 -.00000350  00000+0  00000+0 0  9990
2 45807   2.6274  67.4272 0002522 292.7041 187.1497  1.00275954 22836
BEIDOU-3 G4 (C62)       
1 56564U 23066A   26244.27347101 -.00000277  00000+0  00000+0 0  9991
2 56564   0.4403 352.9386 0005237 199.6422  26.3270  1.00275000 12159
BEIDOU-3 M28 (C50)      
1 58654U 23207A   26243.47338200 -.00000009  00000+0  00000+0 0  9994
2 58654  55.8234  59.7665 0001083  37.8836 322.1643  1.86229642 18248
BEIDOU-3 M26 (C48)      
1 58655U 23207B   26243.80784595 -.00000009  00000+0  00000+0 0  9994
2 58655  55.8257  59.7420 0000718 276.0800  83.9510  1.86229559 18236
BEIDOU-3 M25 (C47)      
1 61186U 24168B   26244.22701830 -.00000026  00000+0  00000+0 0  9991
2 61186  54.4026 299.5949 0004301 286.7091 112.0205  1.86229986 13201
BEIDOU-3 M27 (C49)      
1 61187U 24168C   26243.43848516 -.00000026  00000+0  00000+0 0  9997
2 61187  54.3988 299.6051 0000753 322.2934  42.8124  1.86230109 10668
