GSAT0101 (GALILEO-PFM)  
1 37846U 11060A   26142.03870752 -.00000087  00000+0  00000+0 0  9997
2 37846  57.0040 342.4699 0003643  41.9521 318.0951  1.70475642 90676
GSAT0102 (GALILEO-FM2)  
1 37847U 11060B   26144.89400321 -.00000090  00000+0  00000+0 0  9999
2 37847  57.0043 342.3932 0003902  11.2637 346.7410  1.70475962 90724
GSAT0103 (GALILEO-FM3)  
1 38857U 12055A   26143.25235125  .00000021  00000+0  00000+0 0  9996
2 38857  55.7947 102.2291 0005482 300.3208  59.5856  1.70473380 84588
GSAT0201 (GALILEO 5)    
1 40128U 14050A   26143.08459647 -.00000079  00000+0  00000+0 0  9999
2 40128  48.9035 274.4648 1670806 178.4149 182.2129  1.85519899 77850
GSAT0202 (GALILEO 6)    
1 40129U 14050B   26144.95716844 -.00000096  00000+0  00000+0 0  9991
2 40129  48.9181 273.4734 1672209 179.2149 181.1057  1.85520586 80055
GSAT0203 (GALILEO 7)    
1 40544U 15017A   26144.16294227 -.00000090  00000+0  00000+0 0  9999
2 40544  56.7947 342.2501 0002258 291.5829  68.4129  1.70476041 68797
GSAT0204 (GALILEO 8)    
1 40545U 15017B   26145.59184874 -.00000091  00000+0  00000+0 0  9995
2 40545  56.8006 342.2296 0001775 263.6099  96.3908  1.70475714 31867
GSAT0205 (GALILEO 9)    
1 40889U 15045A   26144.30399159 -.00000014  00000+0  00000+0 0  9994
2 40889  54.9357 222.4171 0006405 263.0112  96.9692  1.67409242 66562
GSAT0206 (GALILEO 10)   
1 40890U 15045B   26144.40733510 -.00000013  00000+0  00000+0 0  9999
2 40890  54.9514 222.2612 0001727  22.9304 337.1304  1.70474019 66630
GSAT0209 (GALILEO 12)   
1 41174U 15079A   26143.98872667  .00000018  00000+0  00000+0 0  9995
2 41174  55.8138 101.9249 0005590 335.9950  23.9396  1.70473875 64361
GSAT0208 (GALILEO 11)   
1 41175U 15079B   26145.38218691  .00000011  00000+0  00000+0 0  9996
2 41175  55.8130 101.8837 0004978 338.1073  21.8293  1.70473719 64805
GSAT0211 (GALILEO 14)   
1 41549U 16030A   26143.15990342 -.00000014  00000+0  00000+0 0  9996
2 41549  55.1018 222.3833 0002676 335.5312  24.5109  1.70474082 62249
GSAT0210 (GALILEO 13)   
1 41550U 16030B   26140.48428466  .00000004  00000+0  00000+0 0  9992
2 41550  55.1019 222.4550 0003239 230.5838 129.4530  1.70473990 62196
GSAT0207 (GALILEO 15)   
1 41859U 16069A   26144.86855128  .00000013  00000+0  00000+0 0  9991
2 41859  55.4851 101.7309 0005705 323.8693  36.0515  1.70473749 59005
GSAT0212 (GALILEO 16)   
1 41860U 16069B   26145.89517133  .00000007  00000+0  00000+0 0  9991
2 41860  55.4835 101.6975 0004728 350.0840   9.8628  1.70473945 59277
GSAT0213 (GALILEO 17)   
1 41861U 16069C   26143.32954111  .00000019  00000+0  00000+0 0  9992
2 41861  55.4841 101.7765 0005510 308.1575  51.7536  1.70474331 59096
GSAT0214 (GALILEO 18)   
1 41862U 16069D   26145.23545638  .00000011  00000+0  00000+0 0  9997
2 41862  55.4839 101.7164 0004583 315.0152  44.9060  1.70474028 59251
GSAT0215 (GALILEO 19)   
1 43055U 17079A   26145.13889048 -.00000009  00000+0  00000+0 0  9998
2 43055  55.0795 222.1411 0003323 263.2184  96.7978  1.70474628 52596
GSAT0216 (GALILEO 20)   
1 43056U 17079B   26142.49716082 -.00000011  00000+0  00000+0 0  9995
2 43056  55.0811 222.2139 0003659 275.5669  84.4487  1.70474676 52569
GSAT0217 (GALILEO 21)   
1 43057U 17079C   26145.65084401 -.00000006  00000+0  00000+0 0  9994
2 43057  55.0798 222.1248 0004284 286.0013  74.0070  1.70474713 52609
GSAT0218 (GALILEO 22)   
1 43058U 17079D   26145.87091427 -.00000005  00000+0  00000+0 0  9994
2 43058  55.0777 222.1164 0004142 273.6717  86.3372  1.70474864 52631
GSAT0221 (GALILEO 25)   
1 43564U 18060A   26145.77481832 -.00000090  00000+0  00000+0 0  9993
2 43564  57.1761 342.3852 0002996 315.0766  44.9207  1.70475961 48785
GSAT0222 (GALILEO 26)   
1 43565U 18060B   26141.88833609 -.00000086  00000+0  00000+0 0  9990
2 43565  57.1815 342.4938 0001850 271.2445  88.7537  1.70475538 48767
GSAT0219 (GALILEO 23)   
1 43566U 18060C   26145.62877631 -.00000090  00000+0  00000+0 0  9995
2 43566  57.1793 342.3942 0002590 333.3464  26.6617  1.70475911 48800
GSAT0220 (GALILEO 24)   
1 43567U 18060D   26145.26317451 -.00000090  00000+0  00000+0 0  9995
2 43567  57.1791 342.4034 0002624 325.9399  34.0646  1.70475850 48788
GSAT0223 (GALILEO 27)   
1 49809U 21116A   26145.69672406 -.00000090  00000+0  00000+0 0  9997
2 49809  57.1670 342.2812 0000850 184.3830 172.5279  1.70476023 27798
GSAT0224 (GALILEO 28)   
1 49810U 21116B   26143.16836869 -.00000088  00000+0  00000+0 0  9991
2 49810  57.1703 342.3482 0000531 126.1506 231.6723  1.70475835 27770
GSAT0225 (GALILEO 29)   
1 59598U 24079A   26142.30044818  .00000020  00000+0  00000+0 0  9991
2 59598  55.1041 101.8024 0002201 291.9380 246.4363  1.70474068 12870
GSAT0227 (GALILEO 30)   
1 59600U 24079C   26145.12607098  .00000011  00000+0  00000+0 0  9993
2 59600  55.1013 101.7225 0001701  32.8778 327.0916  1.70474148 12972
GSAT0232 (GALILEO 32)   
1 61182U 24167A   26144.28427987 -.00000012  00000+0  00000+0 0  9994
2 61182  55.1908 221.9692 0005629 222.4383 196.4466  1.70474466 10472
GSAT0226 (GALILEO 31)   
1 61183U 24167B   26145.20873457 -.00000009  00000+0  00000+0 0  9991
2 61183  55.1893 221.9512 0002451 218.9460 138.6391  1.70474453 10452
GSAT0233 (GALILEO 33)   
1 67160U 25302A   26141.82666015  .00000020  00000+0  00000+0 0  9990
2 67160  54.3194 102.8809 0001476 247.4028 291.0151  1.70474125  2676
GSAT0234 (GALILEO 34)   
1 67162U 25302C   26143.59011920  .00000019  00000+0  00000+0 0  9995
2 67162  54.3227 102.8298 0003475 303.3884  57.4130  1.70474193  2766
