COSMOS 2433 (720)       
1 32275U 07052A   26238.30431777 -.00000032  00000+0  00000+0 0  9990
2 32275  65.5325 313.5725 0005013 219.2817 140.7534  2.13104497146558
COSMOS 2432 (719)       
1 32276U 07052B   26238.37127934 -.00000032  00000+0  00000+0 0  9995
2 32276  65.5488 313.6995 0008205 310.4509  44.5822  2.13103531146578
COSMOS 2434 (721)       
1 32393U 07065A   26238.17705503  .00000015  00000+0  00000+0 0  9991
2 32393  64.3207 189.5559 0001240  12.8948 138.9860  2.13101422145264
COSMOS 2436 (723)       
1 32395U 07065C   26238.98029108  .00000019  00000+0  00000+0 0  9996
2 32395  64.3291 189.6018 0017377 356.8831 183.2098  2.13100087145239
COSMOS 2456 (730)       
1 36111U 09070A   26236.12842843  .00000025  00000+0  00000+0 0  9994
2 36111  65.0541  68.6555 0002132 351.8875 186.8908  2.13103760129875
COSMOS 2457 (733)       
1 36112U 09070B   26238.55511706  .00000035  00000+0  00000+0 0  9996
2 36112  65.0411  68.4157 0005584 128.2172 239.0113  2.13101243129938
COSMOS 2460 (732)       
1 36402U 10007C   26238.16532843 -.00000030  00000+0  00000+0 0  9998
2 36402  65.3754 312.0971 0002117 195.3181 234.8397  2.13101948128229
COSMOS 2476 (744)       
1 37867U 11064A   26238.11454164  .00000037  00000+0  00000+0 0  9998
2 37867  65.3126  70.5118 0022238 231.8154 298.9667  2.13103922115253
COSMOS 2477 (745)       
1 37868U 11064B   26238.35944730  .00000038  00000+0  00000+0 0  9999
2 37868  65.3197  70.5837 0019234 231.6839 307.1107  2.13103068115253
COSMOS 2475 (743)       
1 37869U 11064C   26238.89189074  .00000038  00000+0  00000+0 0  9991
2 37869  65.3264  70.5879 0024436 247.2016 294.8861  2.13101884115270
COSMOS 2485 (747)       
1 39155U 13019A   26238.29889560  .00000039  00000+0  00000+0 0  9995
2 39155  65.4617  71.2526 0022828 227.1100 132.7735  2.13103333103777
COSMOS 2492 (754)       
1 39620U 14012A   26238.25779457 -.00000028  00000+0  00000+0 0  9994
2 39620  65.2523 311.5526 0011136 309.6118  50.3640  2.13103612 96730
COSMOS 2500 (755)       
1 40001U 14032A   26237.01890277 -.00000036  00000+0  00000+0 0  9997
2 40001  65.1879 311.3365 0009252 200.1475 159.8852  2.13106246 94929
COSMOS 2501 (702K)      
1 40315U 14075A   26237.75100782  .00000011  00000+0  00000+0 0  9990
2 40315  63.6183 187.9648 0022393 211.4211 148.4228  2.13101483 91334
COSMOS 2514 (751)       
1 41330U 16008A   26238.20497909 -.00000027  00000+0  00000+0 0  9995
2 41330  64.9756 310.6016 0013437 207.3463 152.6576  2.13102744 82118
COSMOS 2522 (752)       
1 42939U 17055A   26238.51170446  .00000016  00000+0  00000+0 0  9999
2 42939  64.0811 189.4915 0010041 238.4941 121.3844  2.13102120 69474
COSMOS 2527 (756)       
1 43508U 18053A   26238.00471890  .00000039  00000+0  00000+0 0  9997
2 43508  65.6191  71.5797 0006779 216.1793 143.8511  2.13102285 63763
COSMOS 2529 (757)       
1 43687U 18086A   26238.56994466  .00000017  00000+0  00000+0 0  9997
2 43687  64.2975 190.2187 0011208 255.5876 104.2644  2.13102096 60787
COSMOS 2534 (758)       
1 44299U 19030A   26236.18138918  .00000016  00000+0  00000+0 0  9994
2 44299  64.3712 190.3279 0012610 275.3893 186.6632  2.13102347 56377
COSMOS 2544 (759)       
1 44850U 19088A   26237.94913779  .00000038  00000+0  00000+0 0  9995
2 44850  65.6069  71.4039 0011859 247.4917 112.4586  2.13103068 52207
COSMOS 2545 (760)       
1 45358U 20018A   26236.73627223 -.00000036  00000+0  00000+0 0  9995
2 45358  64.3094 310.0076 0011206 233.4331 126.5334  2.13102813 50122
COSMOS 2547 (705K)      
1 46805U 20075A   26235.98783704  .00000017  00000+0  00000+0 0  9997
2 46805  64.6019 190.2136 0008957 238.1108 121.7831  2.13099960 45354
COSMOS 2557 (706K)      
1 52984U 22075A   26238.96723017 -.00000028  00000+0  00000+0 0  9999
2 52984  64.2522 311.9898 0012049 269.3521  90.5854  2.13102587 32223
COSMOS 2559 (707K)      
1 54031U 22130A   26237.37925025 -.00000036  00000+0  00000+0 0  9992
2 54031  64.2260 312.1269 0013487 186.1611 173.8916  2.13101830 30160
COSMOS 2564 (761)       
1 54377U 22161A   26238.62997988  .00000018  00000+0  00000+0 0  9994
2 54377  64.7439 190.3746 0011461 221.5036 138.3860  2.13102044 29134
COSMOS 2569 (703K)      
1 57517U 23114A   26235.35731569  .00000021  00000+0  00000+0 0  9994
2 57517  65.3436  70.3568 0008639 291.2812  68.6978  2.13102572 23691
COSMOS 2584 (704K)      
1 63130U 25042A   26238.05963155  .00000036  00000+0  00000+0 0  9998
2 63130  65.1278  70.4283 0006133 203.7284 156.3179  2.13103704 11530
COSMOS 2596 (708K)      
1 65590U 25206B   26237.90510469 -.00000033  00000+0  00000+0 0  9999
2 65590  64.5896 312.5570 0012084 303.0271  54.0801  2.13101065  7395
